STARLINK-4758           
1 53820U 22114C   26068.92401439 -.00000895  00000+0 -38140-4 0  9995
2 53820  53.2172 303.2911 0001241  83.3214 276.7919 15.08837521192865
2025-180B               
1 65260U 25180B   26061.32709697  .00005888  00000+0  32386-3 0  9996
2 65260  97.5099 189.7404 0014719 334.9723  25.0794 15.14359033 29480
